ONEWEB-0319             
1 49105U 21075AG  24238.45294952  .00000061  00000+0  12341-3 0  9993
2 49105  87.9174 137.4838 0002374  71.2883 288.8506 13.17650746146598
ONEWEB-0323             
1 49106U 21075AH  24238.44565664  .00000421  00000+0  11348-2 0  9999
2 49106  87.8913 122.2569 0002017  76.2251 283.9101 13.12441697147888
ONEWEB-0329             
1 49107U 21075AJ  24238.46100340 -.00000004  00000+0 -44611-4 0  9998
2 49107  87.9174 137.4863 0002121  77.7469 282.3900 13.17651075146570
ONEWEB-0330             
1 49108U 21075AK  24238.61450273 -.00000002  00000+0 -38956-4 0  9992
2 49108  87.9173 137.4568 0002117  80.5248 279.6122 13.17649270146630
ONEWEB-0292             
1 49186U 21083A   24238.32365145 -.00000472  00000+0 -13263-2 0  9991
2 49186  87.8872  91.7787 0001835  76.9644 283.1690 13.13470647144174
ONEWEB-0303             
1 49187U 21083B   24238.34474260  .00000073  00000+0  15238-3 0  9993
2 49187  87.9098 107.0142 0001948  74.7074 285.4274 13.18685049142888
ONEWEB-0306             
1 49188U 21083C   24238.33524484 -.00000266  00000+0 -70676-3 0  9990
2 49188  87.9098 107.0029 0001738  85.4634 274.6696 13.18685470142922
ONEWEB-0307             
1 49189U 21083D   24238.62280534 -.00000324  00000+0 -92122-3 0  9993
2 49189  87.8872  91.7195 0001797  94.7273 265.4061 13.13470953144213
